[{"OBJECT_NAME":"STARLINK-31775","OBJECT_ID":"2024-112Q","EPOCH":"2026-03-09T07:12:42.188256","MEAN_MOTION":15.3018723,"ECCENTRICITY":0.00013218,"INCLINATION":53.1601,"RA_OF_ASC_NODE":80.0421,"ARG_OF_PERICENTER":74.2211,"MEAN_ANOMALY":285.8936,"EPHEMERIS_TYPE":0,"CLASSIFICATION_TYPE":"U","NORAD_CAT_ID":60052,"ELEMENT_SET_NO":999,"REV_AT_EPOCH":9853,"BSTAR":1.4867204e-5,"MEAN_MOTION_DOT":8.1e-7,"MEAN_MOTION_DDOT":0},{"OBJECT_NAME":"GEOSCAN 3 (RS92S3)","OBJECT_ID":"2025-155T","EPOCH":"2026-03-09T22:52:10.587648","MEAN_MOTION":15.31696739,"ECCENTRICITY":0.00068078,"INCLINATION":97.4455,"RA_OF_ASC_NODE":37.9971,"ARG_OF_PERICENTER":154.1387,"MEAN_ANOMALY":206.0196,"EPHEMERIS_TYPE":0,"CLASSIFICATION_TYPE":"U","NORAD_CAT_ID":64893,"ELEMENT_SET_NO":999,"REV_AT_EPOCH":6564,"BSTAR":0.00078414081,"MEAN_MOTION_DOT":0.00023985,"MEAN_MOTION_DDOT":0}]
